ONEWEB-0371             
1 49297U 21090U   26195.78717673  .00000029  00000+0  39888-4 0  9992
2 49297  87.9191 299.4722 0002097 102.0345 258.1023 13.19725011230091
ONEWEB-0372             
1 49298U 21090V   26195.73764145  .00000016  00000+0  79985-5 0  9993
2 49298  87.9189 268.9523 0002088 100.9091 259.2278 13.20769687233472
ONEWEB-0373             
1 49299U 21090W   26196.14181633  .00000079  00000+0  16122-3 0  9996
2 49299  87.9182 268.8713 0002090  96.4388 263.6984 13.20773121234716
ONEWEB-0374             
1 49300U 21090X   26196.20618830 -.00000102  00000+0 -30918-3 0  9998
2 49300  87.8969 284.1159 0001552  88.4842 271.6465 13.14503251231240
ONEWEB-0375             
1 49301U 21090Y   26196.13003470  .00000061  00000+0  11893-3 0  9992
2 49301  87.9186 268.8661 0001680  86.3865 273.7461 13.20773078234216
ONEWEB-0376             
1 49302U 21090Z   26195.78558965  .00000048  00000+0  86522-4 0  9994
2 49302  87.9191 299.4723 0002064 105.8943 254.2418 13.19726371230093
ONEWEB-0377             
1 49303U 21090AA  26196.19246281  .00000046  00000+0  81002-4 0  9992
2 49303  87.9187 268.8556 0001943  94.9118 265.2237 13.20773385234218
ONEWEB-0378             
1 49304U 21090AB  26196.21267789  .00000117  00000+0  25556-3 0  9992
2 49304  87.9182 268.8552 0001920  98.3871 261.7480 13.20772351233480
ONEWEB-0379             
1 49305U 21090AC  26196.20143666 -.00000137  00000+0 -40397-3 0  9993
2 49305  87.8969 284.1270 0001900  99.4999 260.6345 13.14502582231242
ONEWEB-0380             
1 49306U 21090AD  26195.78244142 -.00000051  00000+0 -16010-3 0  9997
2 49306  87.9186 299.4761 0002019  95.4331 264.7032 13.19726610230069
ONEWEB-0381             
1 49307U 21090AE  26196.18894492 -.00000241  00000+0 -62559-3 0  9992
2 49307  87.9188 268.8609 0001828  95.1435 264.9907 13.20771346233527
ONEWEB-0382             
1 49308U 21090AF  26196.17550091  .00000039  00000+0  63998-4 0  9998
2 49308  87.9185 268.8577 0001782  97.1549 262.9787 13.20771909233514
ONEWEB-0383             
1 49309U 21090AG  26196.19509355 -.00000172  00000+0 -49756-3 0  9993
2 49309  87.8973 284.1203 0001863 101.0849 259.0490 13.14502915231275
ONEWEB-0384             
1 49310U 21090AH  26196.16325453  .00000113  00000+0  24480-3 0  9997
2 49310  87.9189 268.9040 0001580  99.2166 260.9146 13.20814046233529
ONEWEB-0385             
1 49311U 21090AJ  26196.16875439  .00000013  00000+0 -97267-7 0  9999
2 49311  87.9183 268.8646 0001876  96.8156 263.3190 13.20769389233496
ONEWEB-0386             
1 49312U 21090AK  26196.18558208 -.00000006  00000+0 -45801-4 0  9991
2 49312  87.9190 268.8531 0001792  98.2826 261.8510 13.20773343233512
